{
  "type": "FeatureCollection",
  "features": [
    {
      "type": "Feature",
      "properties": {
        "norad_id": 64751,
        "name": "PROGRESS-MS 31",
        "group": "stations",
        "lat": 46.186011402787045,
        "lon": 131.6786877939838,
        "alt_km": 412.13388229639804,
        "timestamp": "2025-12-26T03:50:10.842795+00:00",
        "meta_object_name": "PROGRESS-MS 31",
        "meta_object_id": "2025-146A",
        "meta_epoch": "2025-12-25T13:37:14.375136",
        "meta_mean_motion": 15.49813539,
        "meta_eccentricity": 0.00032241,
        "meta_inclination": 51.6318,
        "meta_ra_of_asc_node": 78.9495,
        "meta_arg_of_pericenter": 299.9641,
        "meta_mean_anomaly": 60.1027,
        "meta_ephemeris_type": 0,
        "meta_classification_type": "U",
        "meta_norad_cat_id": 64751,
        "meta_element_set_no": 999,
        "meta_rev_at_epoch": 675,
        "meta_bstar": 0.0002559065,
        "meta_mean_motion_dot": 0.00014081,
        "meta_mean_motion_ddot": 0,
        "tle_line1": "1 64751U 25146A   25359.56752749  .00014081  00000+0  25591-3 0  9998",
        "tle_line2": "2 64751  51.6318  78.9495 0003224 299.9641  60.1027 15.49813539  6754"
      },
      "geometry": {
        "type": "Point",
        "coordinates": [
          131.6786877939838,
          46.186011402787045
        ]
      }
    },
    {
      "type": "Feature",
      "properties": {
        "norad_id": 64786,
        "name": "TIANZHOU-9",
        "group": "stations",
        "lat": -13.075085794284002,
        "lon": -80.04807094593001,
        "alt_km": 395.1764432575892,
        "timestamp": "2025-12-26T03:50:10.842806+00:00",
        "meta_object_name": "TIANZHOU-9",
        "meta_object_id": "2025-149A",
        "meta_epoch": "2025-12-25T12:33:15.160896",
        "meta_mean_motion": 15.59679589,
        "meta_eccentricity": 0.00083772,
        "meta_inclination": 41.4683,
        "meta_ra_of_asc_node": 299.0697,
        "meta_arg_of_pericenter": 143.3414,
        "meta_mean_anomaly": 216.7999,
        "meta_ephemeris_type": 0,
        "meta_classification_type": "U",
        "meta_norad_cat_id": 64786,
        "meta_element_set_no": 999,
        "meta_rev_at_epoch": 25530,
        "meta_bstar": 0.00022529008,
        "meta_mean_motion_dot": 0.00018242,
        "meta_mean_motion_ddot": 0,
        "tle_line1": "1 64786U 25149A   25359.52309214  .00018242  00000+0  22529-3 0  9991",
        "tle_line2": "2 64786  41.4683 299.0697 0008377 143.3414 216.7999 15.59679589255308"
      },
      "geometry": {
        "type": "Point",
        "coordinates": [
          -80.04807094593001,
          -13.075085794284002
        ]
      }
    },
    {
      "type": "Feature",
      "properties": {
        "norad_id": 65077,
        "name": "CREW DRAGON 11",
        "group": "stations",
        "lat": 46.18601200339232,
        "lon": 131.6786895528647,
        "alt_km": 412.13388225070685,
        "timestamp": "2025-12-26T03:50:10.842816+00:00",
        "meta_object_name": "CREW DRAGON 11",
        "meta_object_id": "2025-166A",
        "meta_epoch": "2025-12-25T13:37:14.375136",
        "meta_mean_motion": 15.49813539,
        "meta_eccentricity": 0.00032241,
        "meta_inclination": 51.6318,
        "meta_ra_of_asc_node": 78.9495,
        "meta_arg_of_pericenter": 299.9641,
        "meta_mean_anomaly": 60.1027,
        "meta_ephemeris_type": 0,
        "meta_classification_type": "U",
        "meta_norad_cat_id": 65077,
        "meta_element_set_no": 999,
        "meta_rev_at_epoch": 214,
        "meta_bstar": 0.0002559065,
        "meta_mean_motion_dot": 0.00014081,
        "meta_mean_motion_ddot": 0,
        "tle_line1": "1 65077U 25166A   25359.56752749  .00014081  00000+0  25591-3 0  9992",
        "tle_line2": "2 65077  51.6318  78.9495 0003224 299.9641  60.1027 15.49813539  2145"
      },
      "geometry": {
        "type": "Point",
        "coordinates": [
          131.6786895528647,
          46.18601200339232
        ]
      }
    },
    {
      "type": "Feature",
      "properties": {
        "norad_id": 65304,
        "name": "DRAGON CRS-33",
        "group": "stations",
        "lat": 46.18601228939505,
        "lon": 131.67869039042776,
        "alt_km": 412.1338822289499,
        "timestamp": "2025-12-26T03:50:10.842826+00:00",
        "meta_object_name": "DRAGON CRS-33",
        "meta_object_id": "2025-186A",
        "meta_epoch": "2025-12-25T13:37:14.375136",
        "meta_mean_motion": 15.49813539,
        "meta_eccentricity": 0.00032241,
        "meta_inclination": 51.6318,
        "meta_ra_of_asc_node": 78.9495,
        "meta_arg_of_pericenter": 299.9641,
        "meta_mean_anomaly": 60.1027,
        "meta_ephemeris_type": 0,
        "meta_classification_type": "U",
        "meta_norad_cat_id": 65304,
        "meta_element_set_no": 999,
        "meta_rev_at_epoch": 11,
        "meta_bstar": 0.0002559065,
        "meta_mean_motion_dot": 0.00014081,
        "meta_mean_motion_ddot": 0,
        "tle_line1": "1 65304U 25186A   25359.56752749  .00014081  00000+0  25591-3 0  9997",
        "tle_line2": "2 65304  51.6318  78.9495 0003224 299.9641  60.1027 15.49813539   113"
      },
      "geometry": {
        "type": "Point",
        "coordinates": [
          131.67869039042776,
          46.18601228939505
        ]
      }
    },
    {
      "type": "Feature",
      "properties": {
        "norad_id": 65586,
        "name": "PROGRESS-MS 32",
        "group": "stations",
        "lat": 46.186012575397434,
        "lon": 131.6786912279898,
        "alt_km": 412.13388220719025,
        "timestamp": "2025-12-26T03:50:10.842836+00:00",
        "meta_object_name": "PROGRESS-MS 32",
        "meta_object_id": "2025-204A",
        "meta_epoch": "2025-12-25T13:37:14.375136",
        "meta_mean_motion": 15.49813539,
        "meta_eccentricity": 0.00032241,
        "meta_inclination": 51.6318,
        "meta_ra_of_asc_node": 78.9495,
        "meta_arg_of_pericenter": 299.9641,
        "meta_mean_anomaly": 60.1027,
        "meta_ephemeris_type": 0,
        "meta_classification_type": "U",
        "meta_norad_cat_id": 65586,
        "meta_element_set_no": 999,
        "meta_rev_at_epoch": 27,
        "meta_bstar": 0.0002559065,
        "meta_mean_motion_dot": 0.00014081,
        "meta_mean_motion_ddot": 0,
        "tle_line1": "1 65586U 25204A   25359.56752749  .00014081  00000+0  25591-3 0  9990",
        "tle_line2": "2 65586  51.6318  78.9495 0003224 299.9641  60.1027 15.49813539   272"
      },
      "geometry": {
        "type": "Point",
        "coordinates": [
          131.6786912279898,
          46.186012575397434
        ]
      }
    },
    {
      "type": "Feature",
      "properties": {
        "norad_id": 65616,
        "name": "CYGNUS NG-23",
        "group": "stations",
        "lat": 46.18601286140017,
        "lon": 131.6786920655529,
        "alt_km": 412.1338821854333,
        "timestamp": "2025-12-26T03:50:10.842846+00:00",
        "meta_object_name": "CYGNUS NG-23",
        "meta_object_id": "2025-208A",
        "meta_epoch": "2025-12-25T13:37:14.375136",
        "meta_mean_motion": 15.49813539,
        "meta_eccentricity": 0.00032241,
        "meta_inclination": 51.6318,
        "meta_ra_of_asc_node": 78.9495,
        "meta_arg_of_pericenter": 299.9641,
        "meta_mean_anomaly": 60.1027,
        "meta_ephemeris_type": 0,
        "meta_classification_type": "U",
        "meta_norad_cat_id": 65616,
        "meta_element_set_no": 999,
        "meta_rev_at_epoch": 22,
        "meta_bstar": 0.0002559065,
        "meta_mean_motion_dot": 0.00014081,
        "meta_mean_motion_ddot": 0,
        "tle_line1": "1 65616U 25208A   25359.56752749  .00014081  00000+0  25591-3 0  9998",
        "tle_line2": "2 65616  51.6318  78.9495 0003224 299.9641  60.1027 15.49813539   221"
      },
      "geometry": {
        "type": "Point",
        "coordinates": [
          131.6786920655529,
          46.18601286140017
        ]
      }
    },
    {
      "type": "Feature",
      "properties": {
        "norad_id": 65729,
        "name": "DRAGONFLY",
        "group": "stations",
        "lat": 21.991669862721114,
        "lon": -131.85615775793602,
        "alt_km": 342.36475191517275,
        "timestamp": "2025-12-26T03:50:10.842857+00:00",
        "meta_object_name": "DRAGONFLY",
        "meta_object_id": "1998-067XH",
        "meta_epoch": "2025-12-25T10:27:45.650592",
        "meta_mean_motion": 15.76365427,
        "meta_eccentricity": 0.0008108,
        "meta_inclination": 51.6246,
        "meta_ra_of_asc_node": 70.5435,
        "meta_arg_of_pericenter": 352.3473,
        "meta_mean_anomaly": 7.7402,
        "meta_ephemeris_type": 0,
        "meta_classification_type": "U",
        "meta_norad_cat_id": 65729,
        "meta_element_set_no": 999,
        "meta_rev_at_epoch": 1516,
        "meta_bstar": 0.0012462,
        "meta_mean_motion_dot": 0.00205682,
        "meta_mean_motion_ddot": 0,
        "tle_line1": "1 65729U 98067XH  25359.43594503  .00205682  00000+0  12462-2 0  9995",
        "tle_line2": "2 65729  51.6246  70.5435 0008108 352.3473   7.7402 15.76365427 15162"
      },
      "geometry": {
        "type": "Point",
        "coordinates": [
          -131.85615775793602,
          21.991669862721114
        ]
      }
    }
  ]
}